
# Worst residual: 37.60 km
# MJD 60734.000000 (2025 Feb 28  0:00)
1973-078A = IMP-8 = NORAD 06893
1 06893U 73078A   25059.49919926  .00000000  00000-0  00000-0 0 25483
2 06893 006.8817 158.0471 1715686 064.8011 232.2684 00.08334030    06

# Worst residual: 40.69 km
# MJD 60735.000000 (2025 Mar  1  0:00)
1973-078A = IMP-8 = NORAD 06893
1 06893U 73078A   25060.49919926  .00000000  00000-0  00000-0 0 25485
2 06893 006.8681 158.0254 1734472 062.5996 264.9673 00.08263102    06

# Worst residual: 28.16 km
# MJD 60736.000000 (2025 Mar  2  0:00)
1973-078A = IMP-8 = NORAD 06893
1 06893U 73078A   25061.49919926  .00000000  00000-0  00000-0 0 25486
2 06893 006.8489 157.8484 1781828 061.3776 296.4638 00.08191356    06

# Worst residual: 29.07 km
# MJD 60737.000000 (2025 Mar  3  0:00)
1973-078A = IMP-8 = NORAD 06893
1 06893U 73078A   25062.49919926  .00000000  00000-0  00000-0 0 25487
2 06893 006.8554 157.5279 1826109 062.1301 325.8469 00.08165644    03

# Worst residual: 27.96 km
# MJD 60738.000000 (2025 Mar  4  0:00)
1973-078A = IMP-8 = NORAD 06893
1 06893U 73078A   25063.49919926  .00000000  00000-0  00000-0 0 25488
2 06893 006.8955 157.3823 1812094 063.7322 354.1974 00.08216063    07

# Worst residual: 22.32 km
# MJD 60739.000000 (2025 Mar  5  0:00)
1973-078A = IMP-8 = NORAD 06893
1 06893U 73078A   25064.49919926  .00000000  00000-0  00000-0 0 25489
2 06893 006.9199 157.4760 1761600 064.2282 023.5934 00.08290039    04

# Worst residual: 8.88 km
# MJD 60740.000000 (2025 Mar  6  0:00)
1973-078A = IMP-8 = NORAD 06893
1 06893U 73078A   25065.49919926  .00000000  00000-0  00000-0 0 25480
2 06893 006.9138 157.4634 1732685 064.1567 053.7594 00.08326651    00

# Worst residual: 3.97 km
# MJD 60741.000000 (2025 Mar  7  0:00)
1973-078A = IMP-8 = NORAD 06893
1 06893U 73078A   25066.49919926  .00000000  00000-0  00000-0 0 25481
2 06893 006.9109 157.2167 1724733 064.4807 083.7187 00.08329684    02

# Worst residual: 4.75 km
# MJD 60742.000000 (2025 Mar  8  0:00)
1973-078A = IMP-8 = NORAD 06893
1 06893U 73078A   25067.49919926  .00000000  00000-0  00000-0 0 25482
2 06893 006.9274 156.9089 1721136 064.8084 113.6901 00.08329145    08

# Worst residual: 10.21 km
# MJD 60743.000000 (2025 Mar  9  0:00)
1973-078A = IMP-8 = NORAD 06893
1 06893U 73078A   25068.49919926  .00000000  00000-0  00000-0 0 25483
2 06893 006.9588 156.6858 1721967 064.6331 144.1653 00.08340402    04

# Worst residual: 18.50 km
# MJD 60744.000000 (2025 Mar 10  0:00)
1973-078A = IMP-8 = NORAD 06893
1 06893U 73078A   25069.49919926  .00000000  00000-0  00000-0 0 25484
2 06893 006.9934 156.6057 1731845 063.8844 175.3007 00.08359668    09

# Worst residual: 31.62 km
# MJD 60745.000000 (2025 Mar 11  0:00)
1973-078A = IMP-8 = NORAD 06893
1 06893U 73078A   25070.49919926  .00000000  00000-0  00000-0 0 25486
2 06893 007.0186 156.6639 1750107 062.6561 207.0604 00.08370409    03

# Worst residual: 46.19 km
# MJD 60746.000000 (2025 Mar 12  0:00)
1973-078A = IMP-8 = NORAD 06893
1 06893U 73078A   25071.49919926  .00000000  00000-0  00000-0 0 25487
2 06893 007.0236 156.7713 1776685 060.9667 239.4300 00.08351562    01

# Worst residual: 58.55 km
# MJD 60747.000000 (2025 Mar 13  0:00)
1973-078A = IMP-8 = NORAD 06893
1 06893U 73078A   25072.49919926  .00000000  00000-0  00000-0 0 25488
2 06893 007.0076 156.7637 1822053 058.9204 272.2462 00.08282733    00

# Worst residual: 56.44 km
# MJD 60748.000000 (2025 Mar 14  0:00)
1973-078A = IMP-8 = NORAD 06893
1 06893U 73078A   25073.49919926  .00000000  00000-0  00000-0 0 25489
2 06893 006.9848 156.5314 1905383 057.1592 304.6360 00.08154907    02

# Worst residual: 40.45 km
# MJD 60749.000000 (2025 Mar 15  0:00)
1973-078A = IMP-8 = NORAD 06893
1 06893U 73078A   25074.49919926  .00000000  00000-0  00000-0 0 25480
2 06893 006.9617 156.1460 1999045 057.3302 334.5648 00.08038773    06

# Worst residual: 54.86 km
# MJD 60750.000000 (2025 Mar 16  0:00)
1973-078A = IMP-8 = NORAD 06893
1 06893U 73078A   25075.49919926  .00000000  00000-0  00000-0 0 25481
2 06893 006.9597 155.7163 1960192 059.6781 002.2521 00.08128705    09

# Worst residual: 54.44 km
# MJD 60751.000000 (2025 Mar 17  0:00)
1973-078A = IMP-8 = NORAD 06893
1 06893U 73078A   25076.49919926  .00000000  00000-0  00000-0 0 25482
2 06893 006.9803 155.6097 1845159 060.5448 031.7953 00.08291393    00

# Worst residual: 27.37 km
# MJD 60752.000000 (2025 Mar 18  0:00)
1973-078A = IMP-8 = NORAD 06893
1 06893U 73078A   25077.49919926  .00000000  00000-0  00000-0 0 25483
2 06893 006.9698 155.6536 1773724 060.2214 062.6827 00.08371868    05

# Worst residual: 12.76 km
# MJD 60753.000000 (2025 Mar 19  0:00)
1973-078A = IMP-8 = NORAD 06893
1 06893U 73078A   25078.49919926  .00000000  00000-0  00000-0 0 25484
2 06893 006.9372 155.5259 1744023 060.3801 093.1287 00.08381184    09

# Worst residual: 8.01 km
# MJD 60754.000000 (2025 Mar 20  0:00)
1973-078A = IMP-8 = NORAD 06893
1 06893U 73078A   25079.49919926  .00000000  00000-0  00000-0 0 25485
2 06893 006.9091 155.2021 1727554 061.0796 122.9791 00.08363391    03

# Worst residual: 5.90 km
# MJD 60755.000000 (2025 Mar 21  0:00)
1973-078A = IMP-8 = NORAD 06893
1 06893U 73078A   25080.49919926  .00000000  00000-0  00000-0 0 25487
2 06893 006.8947 154.7826 1713252 061.8456 152.6706 00.08342871    06

# Worst residual: 6.74 km
# MJD 60756.000000 (2025 Mar 22  0:00)
1973-078A = IMP-8 = NORAD 06893
1 06893U 73078A   25081.49919926  .00000000  00000-0  00000-0 0 25488
2 06893 006.8945 154.3614 1699695 062.2953 182.6265 00.08326539    02

# Worst residual: 11.64 km
# MJD 60757.000000 (2025 Mar 23  0:00)
1973-078A = IMP-8 = NORAD 06893
1 06893U 73078A   25082.49919926  .00000000  00000-0  00000-0 0 25489
2 06893 006.9030 154.0003 1687758 062.2074 213.0969 00.08308113    06

# Worst residual: 17.70 km
# MJD 60758.000000 (2025 Mar 24  0:00)
1973-078A = IMP-8 = NORAD 06893
1 06893U 73078A   25083.49919926  .00000000  00000-0  00000-0 0 25480
2 06893 006.9115 153.7494 1681314 061.3866 244.2236 00.08275306    01

# Worst residual: 28.34 km
# MJD 60759.000000 (2025 Mar 25  0:00)
1973-078A = IMP-8 = NORAD 06893
1 06893U 73078A   25084.49919926  .00000000  00000-0  00000-0 0 25481
2 06893 006.9081 153.5845 1692229 059.9459 275.8148 00.08218845    06

# Worst residual: 26.25 km
# MJD 60760.000000 (2025 Mar 26  0:00)
1973-078A = IMP-8 = NORAD 06893
1 06893U 73078A   25085.49919926  .00000000  00000-0  00000-0 0 25482
2 06893 006.8898 153.3695 1732277 058.9273 306.8392 00.08149152    03

# Worst residual: 29.67 km
# MJD 60761.000000 (2025 Mar 27  0:00)
1973-078A = IMP-8 = NORAD 06893
1 06893U 73078A   25086.49919926  .00000000  00000-0  00000-0 0 25483
2 06893 006.8845 153.0229 1772523 059.8535 335.8749 00.08118766    09

# Worst residual: 37.90 km
# MJD 60762.000000 (2025 Mar 28  0:00)
1973-078A = IMP-8 = NORAD 06893
1 06893U 73078A   25087.49919926  .00000000  00000-0  00000-0 0 25484
2 06893 006.9093 152.7993 1744185 061.7319 003.9348 00.08183896    08
